ORBCOMM FM06            
1 25118U 97084G   26197.46385006  .00000427  00000+0  15401-3 0  9998
2 25118  45.0136 271.7670 0001591 235.8178 139.2905 14.47628571498632
ORBCOMM FM04            
1 25159U 98007C   26197.65703252  .00000347  00000+0  16422-3 0  9992
2 25159 107.9632 230.0750 0041969 274.4450  85.1896 14.35786071480825
ORBCOMM FM19            
1 25415U 98046C   26197.78050045  .00000381  00000+0  16625-3 0  9992
2 25415  44.9936 102.8864 0003220  73.2341 325.5602 14.39542993461047
ORBCOMM FM20            
1 25416U 98046D   26197.46803894  .00000283  00000+0  13904-3 0  9994
2 25416  44.9935 112.6183 0001292   6.5310 353.5555 14.38101338461009
ORBCOMM FM27            
1 25481U 98053G   26197.06510712  .00000301  00000+0  14186-3 0  9998
2 25481  45.0036 198.1872 0002378 294.2041  65.8559 14.39185706454395
ORBCOMM FM32            
1 25982U 99065C   26197.83419706  .00000260  00000+0  13401-3 0  9997
2 25982  45.0159  32.9043 0005834 199.9472 160.1149 14.37169321391354
ORBCOMM FM109           
1 40086U 14040A   26197.34218367  .00000059  00000+0  48786-4 0  9996
2 40086  47.0037 313.6423 0001436 327.9203  32.1595 14.58872505638606
ORBCOMM FM110           
1 41182U 15081D   26197.34694995  .00000139  00000+0  65626-4 0  9996
2 41182  47.0004 223.5632 0003646 227.0254 133.0326 14.58918739561888
ORBCOMM FM118           
1 41183U 15081E   26197.44987443  .00000026  00000+0  41687-4 0  9997
2 41183  47.0024 223.4152 0002953 191.9886 168.0930 14.58904321562003
ORBCOMM FM112           
1 41184U 15081F   26197.86474654  .00000266  00000+0  92481-4 0  9993
2 41184  46.9983 129.9042 0003598 335.2211  24.8502 14.58939995563285
ORBCOMM FM113           
1 41185U 15081G   26197.84240992  .00000110  00000+0  59588-4 0  9997
2 41185  47.0001 130.4017 0002130 327.6952  32.3804 14.58882988563262
ORBCOMM FM108           
1 41187U 15081J   26197.59892132  .00000234  00000+0  85574-4 0  9991
2 41187  47.0055  43.1344 0002541 327.2083  32.8645 14.58911677564372
ORBCOMM FM117           
1 41188U 15081K   26197.63315297  .00000214  00000+0  81512-4 0  9995
2 41188  47.0020  41.5992 0002951 335.0575  25.0168 14.58898736564424
ORBCOMM FM116           
1 41189U 15081L   26197.88722159  .00000118  00000+0  61047-4 0  9996
2 41189  47.0016 130.1869 0001611 234.1334 125.9402 14.58907234563279
